ESTCUBE 1               
1 39161U 13021C   21263.75330469  .00000188  00000-0  37258-4 0  9994
2 39161  97.9333 342.7348 0008863 200.0777 160.0059 14.72531622449770
FENGYUN 3C              
1 39260U 13052A   21263.81914318 -.00000010  00000-0  15718-4 0  9998
2 39260  98.4905 300.1263 0010747 337.7602  22.3102 14.15877959413766
CASSIOPE                
1 39265U 13055A   21263.84579629  .00007988  00000-0  21903-3 0  9993
2 39265  80.9688 191.8764 0646491  33.7332 330.3285 14.33035322413652
ZACUBE-1 (TSHEPISOSAT)  
1 39417U 13066B   21263.88123099  .00000288  00000-0  42199-4 0  9991
2 39417  97.6024 243.3113 0057701 207.0192 152.8015 14.81596043423206
CINEMA-3 (KHUSAT-2)     
1 39426U 13066L   21263.84884445  .00000270  00000-0  49604-4 0  9995
2 39426  97.7634 211.1109 0104678  20.2923 340.2396 14.69726713419660
TRITON-1                
1 39427U 13066M   21263.86055879  .00000440  00000-0  77066-4 0  9991
2 39427  97.7815 206.9843 0114379  46.6373 314.4293 14.68308235419213
DELFI-N3XT              
1 39428U 13066N   21263.84099506  .00000649  00000-0  10916-3 0  9996
2 39428  97.7851 205.4554 0120984  59.5540 301.7552 14.68109567418960
GOMX-1                  
1 39430U 13066Q   21263.88649824  .00000198  00000-0  44451-4 0  9998
2 39430  97.8092 181.4687 0150271 173.7989 186.5121 14.59673297416964
BRITE-PL1 (LEM)         
1 39431U 13066R   21263.87104527  .00000059  00000-0  22977-4 0  9999
2 39431  97.7358 135.9909 0201717 343.9023  15.5822 14.47166904413372
ICUBE-1                 
1 39432U 13066S   21263.45806214  .00000577  00000-0  63142-4 0  9990
2 39432  97.4739 276.4796 0033341  86.2376 274.2655 14.90986021424460
HUMSAT-D                
1 39433U 13066T   21263.82185393  .00000690  00000-0  70881-4 0  9994
2 39433  97.4667 283.9707 0031731  64.2117 296.2371 14.93037514424978
VELOX-PII               
1 39438U 13066Y   21263.87578739  .00000239  00000-0  38637-4 0  9996
2 39438  97.6530 234.0459 0068699 254.2580 105.1047 14.78287305421178
FIRST-MOVE              
1 39439U 13066Z   21263.90976078  .00000567  00000-0  74172-4 0  9997
2 39439  97.6068 245.0151 0063622 204.3203 155.5006 14.82759092422093
CUBEBUG-2 (LO-74)       
1 39440U 13066AA  21263.88506241  .00000318  00000-0  50969-4 0  9999
2 39440  97.6866 228.5716 0078288 286.3728  72.8885 14.76320853420502
NEE-02 KRYSAOR          
1 39441U 13066AB  21263.88047035  .00000226  00000-0  39185-4 0  9996
2 39441  97.6964 225.8702 0080082 298.2281  61.0860 14.75239577420287
FUNCUBE-1 (AO-73)       
1 39444U 13066AE  21263.87396464  .00000358  00000-0  49794-4 0  9994
2 39444  97.5924 245.6845 0056966 196.7192 163.2146 14.82519564421570
HINCUBE                 
1 39445U 13066AF  21263.89279997  .00000324  00000-0  45841-4 0  9990
2 39445  97.5939 245.5451 0056946 198.5838 161.3298 14.82350082421524
UWE-3                   
1 39446U 13066AG  21263.89693889  .00000274  00000-0  42710-4 0  9997
2 39446  97.6473 235.4125 0068077 247.7643 111.6339 14.78861384420614
AIST-1 (RS-41)          
1 39492U 13078C   21263.90459568  .00000212  00000-0  20415-4 0  9997
2 39492  82.4199 134.4559 0018288 281.7776  78.1375 14.88074119419691
SPROUT                  
1 39770U 14029E   21263.79604578  .00000783  00000-0  90022-4 0  9997
2 39770  97.9224  15.0363 0007549 252.5046 107.5311 14.88646887397522
UNISAT-6                
1 40012U 14033C   21263.78704878  .00000237  00000-0  42266-4 0  9997
2 40012  97.6706 101.1748 0057021 313.0346  46.6094 14.74376520390247
BUGSAT-1 (TITA)         
1 40014U 14033E   21263.94902129 -.00000271  00000-0 -18290-4 0  9996
2 40014  98.1195 246.9073 0030513 207.2055 152.7568 14.95835247395849
DUCHIFAT-1              
1 40021U 14033M   21263.80532330  .00000600  00000-0  65806-4 0  9991
2 40021  97.9773 205.0407 0011874 204.4418 155.6238 14.91476690394499
NANOSATC-BR1            
1 40024U 14033Q   21263.76208667  .00000573  00000-0  64469-4 0  9995
2 40024  97.9544 199.6484 0011114 210.5749 149.4821 14.90554795393796
QB50P1                  
1 40025U 14033R   21263.81226980  .00000442  00000-0  52276-4 0  9998
2 40025  97.9342 194.7610 0011234 220.1068 139.9321 14.89538919393612
DTUSAT-2                
1 40030U 14033W   21263.77681971  .00000332  00000-0  41188-4 0  9992
2 40030  97.9156 191.0057 0010769 216.1302 143.9188 14.89079630393508
QB50P2                  
1 40032U 14033Y   21263.80987390  .00000431  00000-0  51709-4 0  9992
2 40032  97.9163 191.0469 0010703 217.1617 142.8860 14.89039809393489
POLYITAN-1              
1 40042U 14033AJ  21263.80860734  .00000497  00000-0  58333-4 0  9997
2 40042  97.9438 195.6503 0013517 211.9078 148.1321 14.89363147393502
TIGRISAT                
1 40043U 14033AK  21262.98283891  .00000178  00000-0  33471-4 0  9991
2 40043  97.6669 101.7942 0058693 313.3725  46.2604 14.74584133389760
AISAT                   
1 40054U 14034B   21263.69810437  .00000543  00000-0  81829-4 0  9991
2 40054  98.3345  60.0402 0013950  98.7479 261.5311 14.78549191389605
CANX-4                  
1 40055U 14034C   21263.86196118  .00000129  00000-0  27183-4 0  9997
2 40055  98.3204  47.6908 0015171 132.9078 227.3406 14.75091060388973
CANX-5                  
1 40056U 14034D   21263.86726601  .00000138  00000-0  28564-4 0  9998
2 40056  98.3204  47.6808 0015186 133.0806 227.1676 14.75083533379782
VELOX-I                 
1 40057U 14034E   21263.84040467  .00000492  00000-0  75451-4 0  9996
2 40057  98.3395  61.2683 0012084 111.1131 249.1372 14.78272234389632
METEOR-M 2              
1 40069U 14037A   21263.79545239 -.00000014  00000-0  12867-4 0  9996
2 40069  98.4556 288.6190 0006369  35.6289 324.5304 14.20688261373573
DX1                     
1 40071U 14037C   21263.81598939  .00000140  00000-0  25364-4 0  9992
2 40071  98.4440 113.6110 0009584 100.6493 259.5798 14.81539591389411
UKUBE-1                 
1 40074U 14037F   21263.88351055  .00000464  00000-0  61962-4 0  9991
2 40074  98.4188 125.0235 0005627  76.0566 284.1256 14.84635959390063
FIREBIRD 3              
1 40377U 15003B   21263.89590075  .00004737  00000-0  17070-3 0  9996
2 40377  99.1114  65.2484 0115207 212.5517 146.8576 15.23155875367315
FIREBIRD 4              
1 40378U 15003C   21263.67195647  .00005075  00000-0  18222-3 0  9995
2 40378  99.1119  65.1337 0115296 213.0817 146.3168 15.23206050367284
GRIFEX                  
1 40379U 15003D   21263.89423349  .00003241  00000-0  13175-3 0  9998
2 40379  99.1087  53.8798 0126026 247.2405 111.5467 15.18578606366669
CP10 (EXOCUBE)          
1 40380U 15003E   21263.38032875  .00001853  00000-0  81814-4 0  9997
2 40380  99.1095  47.2900 0131810 269.2184  89.3940 15.16157521366190
DEORBITSAIL             
1 40719U 15032E   21263.90030648  .00000495  00000-0  76354-4 0  9993
2 40719  97.8139 145.8694 0016488 153.4626 206.7432 14.77477510334075
NUDT-PHONESAT           
1 40900U 15049B   21263.81775179  .00004319  00000-0  16430-3 0  9995
2 40900  97.4186 277.3461 0012423 154.7343  19.8866 15.27236767333372
XW-2A                   
1 40903U 15049E   21263.79721698  .00004405  00000-0  91632-4 0  9996
2 40903  97.2267 317.9848 0012842  34.9535  71.8884 15.46087013337528
XW-2C                   
1 40906U 15049H   21263.88320552  .00001027  00000-0  55371-4 0  9990
2 40906  97.4893 265.0718 0013606 210.3927 233.8201 15.16962873332038
XW-2D                   
1 40907U 15049J   21263.79106315  .00001382  00000-0  72584-4 0  9999
2 40907  97.4879 264.8096 0012939 206.2489 241.2274 15.17314749332053
LILACSAT-2              
1 40908U 15049K   21263.88645988  .00000445  00000-0  27665-4 0  9993
2 40908  97.5084 262.6072 0014435 225.5883 220.2377 15.14569241331672
XW-2E                   
1 40909U 15049L   21263.85568497  .00001848  00000-0  89118-4 0  9999
2 40909  97.4678 269.0036 0012497 190.5038 289.1921 15.19905757332425
XW-2F                   
1 40910U 15049M   21263.75280588  .00001819  00000-0  88999-4 0  9996
2 40910  97.4740 267.9877 0013737 191.2853 256.3644 15.19403745332190
XW-2B                   
1 40911U 15049N   21263.87068382  .00001375  00000-0  72448-4 0  9995
2 40911  97.4877 265.5558 0012782 207.5416 270.3173 15.17228623331951
KAITUO 1B               
1 40912U 15049P   21263.85884525  .00002117  00000-0  95609-4 0  9998
2 40912  97.4453 272.4778 0014603 161.8776 318.8840 15.21991214332709
TIANWANG 1A (TW-1A)     
1 40928U 15051D   21263.91741153  .00007683  00000-0  15347-3 0  9997
2 40928  97.0721 286.5718 0007455 312.7442 166.3290 15.47062920336445
LAPAN-A2                
1 40931U 15052B   21262.42379975  .00000646  00000-0  83100-6 0  9993
2 40931   6.0032 302.2385 0012819 296.9609  62.9407 14.76688751323217
LQSAT                   
1 40958U 15057A   21263.90578160  .00000047  00000-0  14649-4 0  9993
2 40958  97.7932 316.5893 0019467 107.7454 252.5878 14.73196980320308
ATHENOXAT 1             
1 41168U 15077C   21263.28500603  .00003415  00000-0  13614-3 0  9999
2 41168  14.9889 283.5893 0010836  58.0197  35.5847 15.16132294319196
GALASSIA                
1 41170U 15077E   21263.23999181  .00002832  00000-0  10620-3 0  9996
2 41170  14.9885 274.4257 0012004  86.6038 273.5656 15.16296418319100
VELOX-II                
1 41171U 15077F   21263.85224078  .00002267  00000-0  87669-4 0  9991
2 41171  14.9921 331.2021 0008495 318.6284  41.3394 15.12829089318698
CHUBUSAT-2              
1 41338U 16012B   21263.78982718  .00000484  00000-0  30662-4 0  9990
2 41338  31.0031 299.6404 0013630 358.4942   1.5651 15.00606517306931
CHUBUSAT-3              
1 41339U 16012C   21263.80368172  .00000502  00000-0  31962-4 0  9991
2 41339  31.0124 296.6824 0013591   5.9740 354.1066 15.00748459306933
HORYU-4                 
1 41340U 16012D   21263.38782872  .00000746  00000-0  48947-4 0  9994
2 41340  31.0046 281.7053 0013692  35.8956 324.2598 15.02018445307071
